SCD 1                   
1 22490U 93009B   26188.05240078  .00000388  00000+0  55359-4 0  9998
2 22490  24.9696  84.9180 0041784 348.5572 139.3367 14.46126599763996
TECHSAT 1B (GO-32)      
1 25397U 98043D   26187.94313305  .00000041  00000+0  37960-4 0  9995
2 25397  99.0077 181.2008 0001942 128.2186 231.9167 14.24432204454147
SCD 2                   
1 25504U 98060A   26188.46338725  .00000337  00000+0  43214-4 0  9992
2 25504  24.9961 307.1193 0016687 338.2344  85.0178 14.45533192463265
DLR-TUBSAT              
1 25757U 99029B   26188.40935076  .00000067  00000+0  28346-4 0  9993
2 25757  98.6705 184.5795 0013032 290.4952  69.4843 14.52432051436185
TERRA                   
1 25994U 99068A   26188.50724569  .00000320  00000+0  74049-4 0  9996
2 25994  97.9444 237.2467 0003045 138.1285 354.4816 14.61119538412578
MAROC-TUBSAT            
1 27004U 01056D   26188.44070336 -.00000024  00000+0  26016-4 0  9992
2 27004  99.8094   5.6829 0020634  91.1872 300.5175 13.70263230228962
AQUA                    
1 27424U 02022A   26188.59668580  .00000663  00000+0  14161-3 0  9997
2 27424  98.4289 158.2889 0000729  97.5163  31.9579 14.62189503286257
SHIYAN-1 (SY-1)         
1 28220U 04012A   26188.14405066  .00010804  00000+0  32771-3 0  9997
2 28220  97.8681 267.5156 0004151 313.3427  46.7468 15.34307947214152
AURA                    
1 28376U 04026A   26188.52730593  .00000655  00000+0  14220-3 0  9994
2 28376  98.3426 145.1503 0001219  89.7334 270.4006 14.61360173169182
IRS-P5 (CARTOSAT-1)     
1 28649U 05017A   26187.94208735  .00001359  00000+0  14247-3 0  9992
2 28649  97.5304 210.1102 0001829  57.7463 302.3933 14.91102434146764
SINAH 1                 
1 28893U 05043D   26188.62419472  .00000282  00000+0  62989-4 0  9991
2 28893  98.2885 323.0693 0013861 207.6575 152.3891 14.64172108103512
RESURS-DK 1             
1 29228U 06021A   26188.26242769  .00001509  00000+0  90655-4 0  9998
2 29228  69.9330 287.5844 0006734 279.9257  80.1149 15.13300743105617
ARIRANG-2 (KOMPSAT-2)   
1 29268U 06031A   26188.65327816  .00000394  00000+0  82530-4 0  9997
2 29268  97.8316  12.1100 0014909  14.3796  58.5864 14.64673448 64475
LAPAN-TUBSAT            
1 29709U 07001A   26188.59030478 -.00000029  00000+0  32784-5 0  9996
2 29709  98.1352 188.2753 0013369 115.8452 244.4143 14.85970627 54188
HAIYANG-1B              
1 31113U 07010A   26188.42163326  .00000079  00000+0  45706-4 0  9990
2 31113  98.3507 169.4831 0014330 137.3096 222.9203 14.31031939  3530
COSMO-SKYMED 1          
1 31598U 07023A   26188.58649322  .00001750  00000+0  15651-3 0  9995
2 31598  97.8847  20.6149 0001068  87.7910 272.3434 14.97196663 32844
TERRASAR-X              
1 31698U 07026A   26188.47915538  .00000240  00000+0  14624-4 0  9995
2 31698  97.4461 195.8972 0001878  86.9540 273.1910 15.19153986 56302
WORLDVIEW-1 (WV-1)      
1 32060U 07041A   26188.57565226  .00004170  00000+0  17252-3 0  9997
2 32060  97.3892 308.0315 0000968 257.7493 102.3636 15.24500853 45981
YAOGAN-3                
1 32289U 07055A   26188.66563119 -.00000124  00000+0 -69812-5 0  9992
2 32289  97.8148 218.3413 0001603  77.5854 282.5544 14.90860423  8927
COSMO-SKYMED 2          
1 32376U 07059A   26188.61671125  .00000334  00000+0  48493-4 0  9997
2 32376  97.8891  11.9188 0001338  92.5039 267.6327 14.82162527  5035
RADARSAT-2              
1 32382U 07061A   26188.60924938 -.00000001  00000+0  16578-4 0  9990
2 32382  98.5783 195.2499 0001315  83.2791 276.8541 14.29981962968871
CARTOSAT-2A             
1 32783U 08021A   26188.60997691  .00000479  00000+0  71058-4 0  9990
2 32783  97.7617 236.6208 0012995  49.7975 310.4372 14.79270189981822
HUANJING 1A (HJ-1A)     
1 33320U 08041A   26188.59654782  .00001580  00000+0  19511-3 0  9998
2 33320  97.6697 173.6469 0020679  72.7335 287.6141 14.84039551961436
HUANJING 1B (HJ-1B)     
1 33321U 08041B   26188.64243150  .00000412  00000+0  55905-4 0  9999
2 33321  97.6533 176.8004 0037680 114.9977 245.5158 14.83353965961446
GEOEYE 1                
1 33331U 08042A   26188.57813896  .00000357  00000+0  76061-4 0  9997
2 33331  98.1330 262.2631 0004515  11.4740 348.6565 14.64645147953133
THEOS                   
1 33396U 08049A   26188.61239133  .00000070  00000+0  52471-4 0  9997
2 33396  98.5556 245.2321 0001136  84.4366 275.6940 14.20136737920867
COSMO-SKYMED 3          
1 33412U 08054A   26188.59373824  .00002501  00000+0  17065-3 0  9995
2 33412  97.8269  47.5015 0015075 190.8222 169.2683 15.07087260960017
YAOGAN-4                
1 33446U 08061A   26188.27077124  .00000924  00000+0  11944-3 0  9996
2 33446  97.9306 121.6333 0014527  11.5254 348.6289 14.83241081948645
GOSAT (IBUKI)           
1 33492U 09002A   26187.91118450  .00000239  00000+0  50550-4 0  9997
2 33492  98.0909 298.7472 0001202  83.4205 276.7137 14.67538625934358
DEIMOS-1                
1 35681U 09041A   26188.60215752  .00000747  00000+0  11740-3 0  9993
2 35681  97.7431 344.9472 0002580 102.7233 257.4265 14.75260209909894
